[{"OBJECT_NAME":"IRIDIUM 170","OBJECT_ID":"2019-002J","EPOCH":"2026-03-09T22:22:31.188288","MEAN_MOTION":14.72262238,"ECCENTRICITY":0.00027319,"INCLINATION":86.6095,"RA_OF_ASC_NODE":35.0236,"ARG_OF_PERICENTER":88.7648,"MEAN_ANOMALY":271.3882,"EPHEMERIS_TYPE":0,"CLASSIFICATION_TYPE":"U","NORAD_CAT_ID":43930,"ELEMENT_SET_NO":999,"REV_AT_EPOCH":38465,"BSTAR":0.00020964732,"MEAN_MOTION_DOT":1.347e-5,"MEAN_MOTION_DDOT":0},{"OBJECT_NAME":"CZ-6A DEB","OBJECT_ID":"2022-151JX","EPOCH":"2026-03-09T23:22:38.191296","MEAN_MOTION":14.46172417,"ECCENTRICITY":0.01187301,"INCLINATION":98.5295,"RA_OF_ASC_NODE":95.1775,"ARG_OF_PERICENTER":277.96,"MEAN_ANOMALY":80.8132,"EPHEMERIS_TYPE":0,"CLASSIFICATION_TYPE":"U","NORAD_CAT_ID":54519,"ELEMENT_SET_NO":999,"REV_AT_EPOCH":17457,"BSTAR":0.00072632579,"MEAN_MOTION_DOT":2.783e-5,"MEAN_MOTION_DDOT":0}]
